ONEWEB-0098             
1 45442U 20020U   25359.69616998  .00000468  00000+0  12833-2 0  9997
2 45442  87.8851  55.6082 0001725  98.6000 261.5323 13.11414156279908
ONEWEB-0055             
1 45443U 20020V   25359.67921353  .00000300  00000+0  81104-3 0  9993
2 45443  87.8848  55.6118 0001728 100.1333 259.9990 13.11416954279871
ONEWEB-0093             
1 45444U 20020W   25359.73104885 -.00000519  00000+0 -15011-2 0  9991
2 45444  87.8852  55.5890 0002233 102.5335 257.6043 13.11418285279944
ONEWEB-0029             
1 45445U 20020X   25359.44182666  .00000075  00000+0  17650-3 0  9990
2 45445  87.8853  55.6591 0001893  98.3856 261.7486 13.11420477279882
ONEWEB-0068             
1 45446U 20020Y   25359.65447382 -.00000531  00000+0 -15347-2 0  9992
2 45446  87.8859  55.6067 0001901  98.6108 261.5235 13.11416217279854
ONEWEB-0046             
1 45447U 20020Z   25359.72244288 -.00000507  00000+0 -14664-2 0  9995
2 45447  87.8850  55.6008 0002001 106.6778 253.4570 13.11416302279875
ONEWEB-0063             
1 45448U 20020AA  25359.59866740  .00000209  00000+0  55349-3 0  9997
2 45448  87.8853  55.6227 0001815 108.5480 251.5845 13.11417273279945
ONEWEB-0019             
1 45449U 20020AB  25359.71516705 -.00000253  00000+0 -74410-3 0  9996
2 45449  87.8836  55.6028 0001696  97.8535 262.2786 13.11990543279808
